KUIPER-00044            
1 64505U 25134F   25365.88269676  .00004563  00000+0  62712-3 0  9996
2 64505  51.8975 186.4358 0012082  51.6060 308.5986 14.79916656 29849
KUIPER-00046            
1 64506U 25134G   25365.80103944  .00004904  00000+0  65854-3 0  9993
2 64506  51.8978 183.0723 0013111  59.5596 300.6660 14.80753035 29885
KUIPER-00047            
1 64507U 25134H   26001.00003472 -.00028373  00000+0 -39419-2 0  9994
2 64507  51.8969 153.7539 0002544  16.3800 117.5309 14.77359332  5058
KUIPER-00048            
1 64508U 25134J   25365.84905272  .00001062  00000+0  16820-3 0  9994
2 64508  51.9017 155.5746 0002322 208.0327 152.0511 14.79956678 30271
KUIPER-00049            
1 64509U 25134K   25365.90150787  .00002714  00000+0  38491-3 0  9998
2 64509  51.8980 168.8129 0003126  72.9541 287.1763 14.79934092 30096
KUIPER-00050            
1 64510U 25134L   25365.87415459  .00008431  00000+0  74909-3 0  9992
2 64510  51.8885 160.1221 0005001  92.8617 267.2925 14.96840746 30213
KUIPER-00051            
1 64511U 25134M   25365.70161134 -.00004272  00000+0 -53110-3 0  9995
2 64511  51.9000 167.2596 0002000 102.1805 257.9382 14.79974277 30094
KUIPER-00052            
1 64512U 25134N   26001.00003472  .00094138  00000+0  59086-3 0  9993
2 64512  51.8600  96.4039 0001422  99.3432 216.9534 15.75990557  5727
